HAWK-11A                
1 62382U 24247F   26068.51231358  .00009457  00000+0  34106-3 0  9991
2 62382  44.9941 114.3328 0005466 327.3713  32.6832 15.28849427 67741
STARLINK-35434          
1 66246U 25245N   26068.87312064  .00024159  00000+0  82495-3 0  9996
2 66246  53.1567 283.1123 0000778  94.0216 266.0874 15.30207836 21075
